NORAD_CAT_ID,OBJECT_NAME,OBJECT_TYPE,EPOCH,MEAN_MOTION,ECCENTRICITY,INCLINATION,RA_OF_ASC_NODE,ARG_OF_PERICENTER,MEAN_ANOMALY,BSTAR,MEAN_MOTION_DOT,MEAN_MOTION_DDOT,TLE_LINE0,TLE_LINE1,TLE_LINE2,SEMIMAJOR_AXIS,PERIOD,APOGEE,PERIGEE,DECAYED
52880.0,STARLINK-4186,PAYLOAD,2023-05-20 17:07:30,15.0885191,9.9e-05,53.2173,290.9306,95.7497,264.3608,0.0001737,2.479e-05,0.0,0 STARLINK-4186,1 52880U 22062BC  23140.71355117  .00002479  00000-0  17370-3 0  9998,2 52880  53.2173 290.9306 0000990  95.7497 264.3608 15.08851910 51973,6917.844,95.437,540.394,539.024,0.0
52880.0,STARLINK-4186,PAYLOAD,2023-05-21 02:39:50,15.08839866,8.81e-05,53.2162,289.1438,92.6765,267.4328,9.2116e-05,1.179e-05,0.0,0 STARLINK-4186,1 52880U 22062BC  23141.11099916  .00001179  00000-0  92116-4 0  9993,2 52880  53.2162 289.1438 0000881  92.6765 267.4328 15.08839866 52037,6917.881,95.438,540.355,539.136,0.0
52880.0,STARLINK-4186,PAYLOAD,2023-05-21 09:01:22,15.08838219,0.0001033,53.2157,287.9577,93.1953,266.9157,1.7736e-05,-5e-08,0.0,0 STARLINK-4186,1 52880U 22062BC  23141.37595957 -.00000005  00000-0  17736-4 0  9990,2 52880  53.2157 287.9577 0001033  93.1953 266.9157 15.08838219 51580,6917.886,95.438,540.465,539.036,0.0
52880.0,STARLINK-4186,PAYLOAD,2023-05-21 16:58:19,15.08830353,7.04e-05,53.2157,286.4691,126.7757,233.33,-2.0368e-05,-6.12e-06,0.0,0 STARLINK-4186,1 52880U 22062BC  23141.70716954 -.00000612  00000-0 -20368-4 0  9999,2 52880  53.2157 286.4691 0000704 126.7757 233.3300 15.08830353 52120,6917.91,95.438,540.262,539.288,0.0
52880.0,STARLINK-4186,PAYLOAD,2023-05-22 02:30:37,15.08837758,8.4e-05,53.2181,284.6847,108.505,251.6033,6.4512e-05,7.39e-06,0.0,0 STARLINK-4186,1 52880U 22062BC  23142.10460490  .00000739  00000-0  64512-4 0  9992,2 52880  53.2181 284.6847 0000840 108.5050 251.6033 15.08837758 52183,6917.887,95.438,540.333,539.171,0.0
52880.0,STARLINK-4186,PAYLOAD,2023-05-22 18:24:28,15.08855044,9.08e-05,53.217,281.7109,115.9587,244.1498,0.00022326,3.269e-05,0.0,0 STARLINK-4186,1 52880U 22062BC  23142.76699385  .00003269  00000-0  22326-3 0  9998,2 52880  53.2170 281.7109 0000908 115.9587 244.1498 15.08855044 52283,6917.834,95.437,540.328,539.071,0.0
52880.0,STARLINK-4186,PAYLOAD,2023-05-23 16:39:53,15.08836894,8.33e-05,53.2163,277.5466,122.1972,237.9101,0.00015372,2.159e-05,0.0,0 STARLINK-4186,1 52880U 22062BC  23143.69436775  .00002159  00000-0  15372-3 0  9993,2 52880  53.2163 277.5466 0000833 122.1972 237.9101 15.08836894 52428,6917.89,95.438,540.331,539.179,0.0
52880.0,STARLINK-4186,PAYLOAD,2023-05-24 14:55:17,15.08848045,8.06e-05,53.2161,273.3852,68.3991,291.7087,0.00058494,9.036e-05,0.0,0 STARLINK-4186,1 52880U 22062BC  23144.62172879  .00009036  00000-0  58494-3 0  9992,2 52880  53.2161 273.3852 0000806  68.3991 291.7087 15.08848045 52074,6917.856,95.437,540.278,539.163,0.0
52880.0,STARLINK-4186,PAYLOAD,2023-05-25 17:56:50,15.08851977,8.88e-05,53.216,268.3285,88.1912,271.9182,0.00030023,4.495e-05,0.0,0 STARLINK-4186,1 52880U 22062BC  23145.74780340  .00004495  00000-0  30023-3 0  9996,2 52880  53.2160 268.3285 0000888  88.1912 271.9182 15.08851977 52737,6917.844,95.437,540.323,539.094,0.0
52880.0,STARLINK-4186,PAYLOAD,2023-05-26 13:01:28,15.08840369,8.84e-05,53.2159,264.7575,105.7692,254.3397,3.7319e-05,3.06e-06,0.0,0 STARLINK-4186,1 52880U 22062BC  23146.54268558  .00000306  00000-0  37319-4 0  9990,2 52880  53.2159 264.7575 0000884 105.7692 254.3397 15.08840369 52369,6917.879,95.438,540.356,539.133,0.0
52880.0,STARLINK-4186,PAYLOAD,2023-05-27 14:27:38,15.0884347,8.29e-05,53.2163,260.0023,86.5637,273.545,0.00015818,2.231e-05,0.0,0 STARLINK-4186,1 52880U 22062BC  23147.60252427  .00002231  00000-0  15818-3 0  9994,2 52880  53.2163 260.0023 0000829  86.5637 273.5450 15.08843470 53017,6917.87,95.437,540.308,539.161,0.0
52880.0,STARLINK-4186,PAYLOAD,2023-05-27 23:59:56,15.08854038,7.11e-05,53.2163,258.2147,61.914,298.1924,-3.1313e-06,-3.38e-06,0.0,0 STARLINK-4186,1 52880U 22062BC  23147.99995670 -.00000338  00000-0 -31313-5 0  9998,2 52880  53.2163 258.2147 0000711  61.9140 298.1924 15.08854038 53076,6917.837,95.437,540.194,539.211,0.0
52880.0,STARLINK-4186,PAYLOAD,2023-05-28 06:21:29,15.08838238,8.32e-05,53.2176,257.0323,106.4237,253.6846,0.00012459,1.696e-05,0.0,0 STARLINK-4186,1 52880U 22062BC  23148.26492699  .00001696  00000-0  12459-3 0  9996,2 52880  53.2176 257.0323 0000832 106.4237 253.6846 15.08838238 52622,6917.886,95.438,540.326,539.175,0.0
52880.0,STARLINK-4186,PAYLOAD,2023-05-28 11:07:39,15.08835588,7.54e-05,53.2171,256.1373,84.4761,275.6317,8.0824e-05,9.99e-06,0.0,0 STARLINK-4186,1 52880U 22062BC  23148.46365057  .00000999  00000-0  80824-4 0  9992,2 52880  53.2171 256.1373 0000754  84.4761 275.6317 15.08835588 53142,6917.894,95.438,540.28,539.237,0.0
52880.0,STARLINK-4186,PAYLOAD,2023-05-28 12:43:02,15.08837799,7.53e-05,53.2169,255.8398,83.867,276.2408,9.7302e-05,1.261e-05,0.0,0 STARLINK-4186,1 52880U 22062BC  23148.52988901  .00001261  00000-0  97302-4 0  9990,2 52880  53.2169 255.8398 0000753  83.8670 276.2408 15.08837799 52663,6917.887,95.438,540.273,539.231,0.0
52880.0,STARLINK-4186,PAYLOAD,2023-05-29 14:09:12,15.08845839,7.63e-05,53.2167,251.0823,82.4517,277.6562,9.5432e-05,1.232e-05,0.0,0 STARLINK-4186,1 52880U 22062BC  23149.58972364  .00001232  00000-0  95432-4 0  9993,2 52880  53.2167 251.0823 0000763  82.4517 277.6562 15.08845839 52826,6917.863,95.437,540.255,539.2,0.0
52880.0,STARLINK-4186,PAYLOAD,2023-05-29 15:44:35,15.08848656,7.87e-05,53.2167,250.785,84.2949,275.8132,0.00011872,1.603e-05,0.0,0 STARLINK-4186,1 52880U 22062BC  23149.65596104  .00001603  00000-0  11872-3 0  9992,2 52880  53.2167 250.7850 0000787  84.2949 275.8132 15.08848656 53326,6917.854,95.437,540.263,539.174,0.0
52880.0,STARLINK-4186,PAYLOAD,2023-05-30 09:13:50,15.08832127,8.81e-05,53.2164,247.5127,95.2499,264.8594,2.5624e-05,1.2e-06,0.0,0 STARLINK-4186,1 52880U 22062BC  23150.38461454  .00000120  00000-0  25624-4 0  9997,2 52880  53.2164 247.5127 0000881  95.2499 264.8594 15.08832127 53439,6917.904,95.438,540.379,539.16,0.0
52880.0,STARLINK-4186,PAYLOAD,2023-05-30 12:24:36,15.08835458,8.53e-05,53.2162,246.9177,121.0805,239.0271,3.7221e-05,3.05e-06,0.0,0 STARLINK-4186,1 52880U 22062BC  23150.51709114  .00000305  00000-0  37221-4 0  9991,2 52880  53.2162 246.9177 0000853 121.0805 239.0271 15.08835458 52966,6917.894,95.438,540.349,539.169,0.0
52880.0,STARLINK-4186,PAYLOAD,2023-05-30 15:35:22,15.08834885,8.47e-05,53.2163,246.3241,91.64,268.4689,8.1063e-05,1.002e-05,0.0,0 STARLINK-4186,1 52880U 22062BC  23150.64957173  .00001002  00000-0  81063-4 0  9993,2 52880  53.2163 246.3241 0000847  91.6400 268.4689 15.08834885 52983,6917.896,95.438,540.347,539.175,0.0
52880.0,STARLINK-4186,PAYLOAD,2023-05-30 23:32:18,15.08840725,7.79e-05,53.2169,244.8366,89.0358,271.0723,6.0244e-05,6.71e-06,0.0,0 STARLINK-4186,1 52880U 22062BC  23150.98076834  .00000671  00000-0  60244-4 0  9995,2 52880  53.2169 244.8366 0000779  89.0358 271.0723 15.08840725 53527,6917.878,95.438,540.282,539.204,0.0
52880.0,STARLINK-4186,PAYLOAD,2023-05-31 13:50:45,15.0885054,7.5e-05,53.2164,242.1609,94.0673,266.0405,8.7719e-05,1.109e-05,0.0,0 STARLINK-4186,1 52880U 22062BC  23151.57692119  .00001109  00000-0  87719-4 0  9994,2 52880  53.2164 242.1609 0000750  94.0673 266.0405 15.08850540 53121,6917.848,95.437,540.232,539.194,0.0
52880.0,STARLINK-4186,PAYLOAD,2023-05-31 23:23:05,15.08845203,8.26e-05,53.2165,240.3792,60.6423,299.4651,2.3917e-05,9.3e-07,0.0,0 STARLINK-4186,1 52880U 22062BC  23151.97436528  .00000093  00000-0  23917-4 0  9999,2 52880  53.2165 240.3792 0000826  60.6423 299.4651 15.08845203 53674,6917.864,95.437,540.301,539.158,0.0
52880.0,STARLINK-4186,PAYLOAD,2023-06-01 10:30:48,15.08833599,9.74e-05,53.2157,238.2963,70.1379,289.9718,1.3986e-06,-2.65e-06,0.0,0 STARLINK-4186,1 52880U 22062BC  23152.43805629 -.00000265  00000-0  13986-5 0  9991,2 52880  53.2157 238.2963 0000974  70.1379 289.9718 15.08833599 53258,6917.9,95.438,540.439,539.091,0.0
52880.0,STARLINK-4186,PAYLOAD,2023-06-01 23:13:52,15.08839458,8.52e-05,53.216,235.9159,79.8792,280.2296,2.3862e-05,9.2e-07,0.0,0 STARLINK-4186,1 52880U 22062BC  23152.96797193  .00000092  00000-0  23862-4 0  9995,2 52880  53.2160 235.9159 0000852  79.8792 280.2296 15.08839458 53821,6917.882,95.438,540.336,539.158,0.0
52880.0,STARLINK-4186,PAYLOAD,2023-06-02 11:56:57,15.08847038,8.53e-05,53.2167,233.5366,77.617,282.4918,2.5315e-05,1.15e-06,0.0,0 STARLINK-4186,1 52880U 22062BC  23153.49788818  .00000115  00000-0  25315-4 0  9999,2 52880  53.2167 233.5366 0000853  77.6170 282.4918 15.08847038 53412,6917.859,95.437,540.314,539.134,0.0
52880.0,STARLINK-4186,PAYLOAD,2023-06-03 10:12:22,15.0883419,9.65e-05,53.2166,229.3747,65.1113,294.9979,9.9938e-05,1.303e-05,0.0,0 STARLINK-4186,1 52880U 22062BC  23154.42525654  .00001303  00000-0  99938-4 0  9992,2 52880  53.2166 229.3747 0000965  65.1113 294.9979 15.08834190 54040,6917.898,95.438,540.431,539.096,0.0
52880.0,STARLINK-4186,PAYLOAD,2023-06-03 11:47:45,15.08836428,9.3e-05,53.2166,229.0771,66.8027,293.3063,7.8216e-05,9.57e-06,0.0,0 STARLINK-4186,1 52880U 22062BC  23154.49149554  .00000957  00000-0  78216-4 0  9990,2 52880  53.2166 229.0771 0000930  66.8027 293.3063 15.08836428 53567,6917.891,95.438,540.4,539.113,0.0
52880.0,STARLINK-4186,PAYLOAD,2023-06-04 10:03:09,15.08840655,9.36e-05,53.2165,224.914,68.8707,291.2385,5.1039e-05,5.25e-06,0.0,0 STARLINK-4186,1 52880U 22062BC  23155.41885453  .00000525  00000-0  51039-4 0  9993,2 52880  53.2165 224.9140 0000936  68.8707 291.2385 15.08840655 53700,6917.878,95.438,540.391,539.096,0.0
52880.0,STARLINK-4186,PAYLOAD,2023-06-04 14:49:18,15.08844031,9.61e-05,53.217,224.0229,72.2303,287.8793,7.544e-05,9.13e-06,0.0,0 STARLINK-4186,1 52880U 22062BC  23155.61757119  .00000913  00000-0  75440-4 0  9995,2 52880  53.2170 224.0229 0000961  72.2303 287.8793 15.08844031 54228,6917.868,95.437,540.398,539.068,0.0
